*******************************************************************************
Ephemeris / WWW_USER Wed Jun 10 10:45:15 2020 Pasadena, USA      / Horizons
*******************************************************************************
Target body name: Pluto (999)                     {source: plu055l_merged}
Center body name: Sun (10)                        {source: plu055l_merged}
Center-site name: BODY CENTER
*******************************************************************************
Start time      : A.D. 2000-Jul-09 00:00:00.0000 TDB
Stop  time      : A.D. 2024-Jul-09 00:00:00.0000 TDB
Step-size       : 1440 minutes
*******************************************************************************
Center geodetic : 0.00000000,0.00000000,0.0000000 {E-lon(deg),Lat(deg),Alt(km)}
Center cylindric: 0.00000000,0.00000000,0.0000000 {E-lon(deg),Dxy(km),Dz(km)}
Center radii    : 696000.0 x 696000.0 x 696000.0 k{Equator, meridian, pole}    
Keplerian GM    : 2.9591221022397777E-04 au^3/d^2
Output units    : AU-D, deg, Julian Day Number (Tp)
Output type     : GEOMETRIC osculating elements
Output format   : 10
Reference frame : Ecliptic of J2000.0
*******************************************************************************
            JDTDB,            Calendar Date (TDB),                     EC,                     QR,                     IN,                     OM,                      W,                     Tp,                      N,                     MA,                     TA,                      A,                     AD,                     PR,
**************************************************************************************************************************************************************************************************************************************************************************************************************************************************
$$SOE
2452999.500000000, A.D. 2003-Dec-26 00:00:00.0000,  2.474694933092800E-01,  2.965517616038206E+01,  1.700326035360564E+01,  1.105867340525794E+02,  1.134319979592586E+02,  2.447793120037240E+06,  3.984184839789233E-03,  2.074318011780824E+01,  3.464064658487026E+01,  3.940727438518309E+01,  4.915937260998412E+01,  9.035725361051380E+04,
2453000.500000000, A.D. 2003-Dec-27 00:00:00.0000,  2.524391399005660E-01,  2.969753595858849E+01,  1.713160911447564E+01,  1.103156532592393E+02,  1.146745751550044E+02,  2.447945129488399E+06,  3.936346155739328E-03,  1.989968827917980E+01,  3.366356661904662E+01,  3.972591068322969E+01,  4.975428540787088E+01,  9.145537149346167E+04,
2453001.500000000, A.D. 2003-Dec-28 00:00:00.0000,  2.552788892908316E-01,  2.967141757979353E+01,  1.728860353859413E+01,  1.099904524328897E+02,  1.147083390414604E+02,  2.447912978315563E+06,  3.919107077488033E-03,  1.994246134742900E+01,  3.394680966087433E+01,  3.984232104222023E+01,  5.001322450464693E+01,  9.185765861512090E+04,
2453002.500000000, A.D. 2003-Dec-29 00:00:00.0000,  2.534892076805281E-01,  2.959908924206315E+01,  1.733474773739515E+01,  1.098961738285869E+02,  1.135270231831641E+02,  2.447729110167569E+06,  3.947668617852659E-03,  2.081759555118963E+01,  3.522449508336140E+01,  3.964991470531362E+01,  4.970074016856409E+01,  9.119306478055460E+04,
2453003.500000000, A.D. 2003-Dec-30 00:00:00.0000,  2.487602047777036E-01,  2.954255655986756E+01,  1.722823428060924E+01,  1.101145957926870E+02,  1.121424995726076E+02,  2.447551187837334E+06,  3.996684261151641E-03,  2.179117020741330E+01,  3.640680192924746E+01,  3.932506870343008E+01,  4.910758084699260E+01,  9.007466601734167E+04,
2453004.500000000, A.D. 2003-Dec-31 00:00:00.0000,  2.452213074272533E-01,  2.955520600034519E+01,  1.706392086249951E+01,  1.104576362627069E+02,  1.117986458602782E+02,  2.447539115430571E+06,  4.022374812174855E-03,  2.198382523092256E+01,  3.642919164050347E+01,  3.915744613775860E+01,  4.875968627517201E+01,  8.949936711774302E+04,
2453005.500000000, A.D. 2004-Jan-01 00:00:00.0000,  2.460198042357057E-01,  2.962610030990628E+01,  1.698909279240057E+01,  1.106163663670524E+02,  1.128399096709430E+02,  2.447709513118165E+06,  4.001586875404912E-03,  2.119235159866987E+01,  3.524248671565865E+01,  3.929294227665345E+01,  4.895978424340061E+01,  8.996430946249851E+04,
2453006.500000000, A.D. 2004-Jan-02 00:00:00.0000,  2.505586200204489E-01,  2.968877365153560E+01,  1.707007688756176E+01,  1.104447047841492E+02,  1.142998636673270E+02,  2.447904769206508E+06,  3.952957913109029E-03,  2.016692711068595E+01,  3.395301442415173E+01,  3.961453750037885E+01,  4.954030134922210E+01,  9.107104297927054E+04,
2453007.500000000, A.D. 2004-Jan-03 00:00:00.0000,  2.547220161691851E-01,  2.968956122243286E+01,  1.723425326211914E+01,  1.101024847244177E+02,  1.148692229866641E+02,  2.447949507208767E+06,  3.919907730171246E-03,  1.982686504150587E+01,  3.371701769166767E+01,  3.983689558334339E+01,  4.998422994425393E+01,  9.183889641817486E+04,
2453008.500000000, A.D. 2004-Jan-04 00:00:00.0000,  2.547487797413797E-01,  2.962916160467954E+01,  1.733584294732492E+01,  1.098945038439414E+02,  1.140830419591068E+02,  2.447810454343399E+06,  3.931688253009669E-03,  2.043709504666712E+01,  3.470815146303234E+01,  3.975728022880325E+01,  4.988539885292695E+01,  9.156371940843060E+04,
2453009.500000000, A.D. 2004-Jan-05 00:00:00.0000,  2.507294494301091E-01,  2.955818239725602E+01,  1.728401419830829E+01,  1.100002239891051E+02,  1.126177097134241E+02,  2.447607950774308E+06,  3.977823262885533E-03,  2.148640816557925E+01,  3.607890285880455E+01,  3.944927820101062E+01,  4.934037400476522E+01,  9.050175842625402E+04,
2453010.500000000, A.D. 2004-Jan-06 00:00:00.0000,  2.462264556534364E-01,  2.954099848691468E+01,  1.712437463206701E+01,  1.103304217639489E+02,  1.117576929852658E+02,  2.447519079674785E+06,  4.017238865943766E-03,  2.206034715968891E+01,  3.662982962857890E+01,  3.919081361833067E+01,  4.884062874974666E+01,  8.961378997199003E+04,
2453011.500000000, A.D. 2004-Jan-07 00:00:00.0000,  2.451742093181574E-01,  2.959552223052608E+01,  1.699994438811100E+01,  1.105927007173456E+02,  1.123142798509270E+02,  2.447629789923807E+06,  4.014534177282291E-03,  2.160505903310251E+01,  3.582883569562162E+01,  3.920841417433832E+01,  4.882130611815057E+01,  8.967416494725380E+04,
2453012.500000000, A.D. 2004-Jan-08 00:00:00.0000,  2.486179066065331E-01,  2.967006529166510E+01,  1.702182143125912E+01,  1.105462855167814E+02,  1.137812515102283E+02,  2.447840059835495E+06,  3.972076312643382E-03,  2.054532705599437E+01,  3.441258759173901E+01,  3.948732016977702E+01,  4.930457504788893E+01,  9.063269979332876E+04,
2453013.500000000, A.D. 2004-Jan-09 00:00:00.0000,  2.534993832898427E-01,  2.969801285713259E+01,  1.716979173645672E+01,  1.102359632661234E+02,  1.148141766428771E+02,  2.447956749103807E+06,  3.927880306898761E-03,  1.986231226204928E+01,  3.368262966801763E+01,  3.978297163103803E+01,  4.986793040494348E+01,  9.165248731426756E+04,
2453014.500000000, A.D. 2004-Jan-10 00:00:00.0000,  2.553631448612484E-01,  2.965753018404682E+01,  1.731227184038283E+01,  1.099429900013114E+02,  1.145303916675480E+02,  2.447881665991524E+06,  3.921194590664882E-03,  2.012684094881711E+01,  3.425258862865726E+01,  3.982817930563024E+01,  4.999882842721367E+01,  9.180875666233081E+04,
2453015.500000000, A.D. 2004-Jan-11 00:00:00.0000,  2.526230154148597E-01,  2.958247223062308E+01,  1.732248060402161E+01,  1.099222092728734E+02,  1.131890026998408E+02,  2.447682827472394E+06,  3.957873930094037E-03,  2.110604557473867E+01,  3.562017303172465E+01,  3.958172761641026E+01,  4.958098300219745E+01,  9.095792497651551E+04,
2453016.500000000, A.D. 2004-Jan-12 00:00:00.0000,  2.477812045316558E-01,  2.953841503769585E+01,  1.719055072095600E+01,  1.101927850207339E+02,  1.119452841249422E+02,  2.447531297998410E+06,  4.005341624775143E-03,  2.197010789726801E+01,  3.661183436718815E+01,  3.926838203943673E+01,  4.899834904117760E+01,  8.987997372638849E+04,
2453017.500000000, A.D. 2004-Jan-13 00:00:00.0000,  2.450517435258934E-01,  2.956803407416228E+01,  1.703433556609448E+01,  1.105193419939014E+02,  1.119352559381949E+02,  2.447566146950751E+06,  4.021112095519469E-03,  2.192050168328277E+01,  3.631608977903190E+01,  3.916564323528101E+01,  4.876325239639974E+01,  8.952747186558928E+04,
2453018.500000000, A.D. 2004-Jan-14 00:00:00.0000,  2.469103176668962E-01,  2.964376023803642E+01,  1.699375891613122E+01,  1.106052850691518E+02,  1.131913967715009E+02,  2.447760056425468E+06,  3.990930673882595E-03,  2.098608375848151E+01,  3.498409970120703E+01,  3.936285535900426E+01,  4.908195047997210E+01,  9.020452356035852E+04,
2453019.500000000, A.D. 2004-Jan-15 00:00:00.0000,  2.517898244910565E-01,  2.969559734599570E+01,  1.710438039440402E+01,  1.103721740490007E+02,  1.145486683835011E+02,  2.447933296346024E+06,  3.941861780945928E-03,  2.004911179371576E+01,  3.385604390603834E+01,  3.968884454932241E+01,  4.968209175264912E+01,  9.132740314238284E+04,
2453020.500000000, A.D. 2004-Jan-16 00:00:00.0000,  2.552404680072464E-01,  2.968039883114202E+01,  1.726743167190101E+01,  1.100349247308509E+02,  1.148092634464710E+02,  2.447933188255760E+06,  3.917631491971071E-03,  1.993021269870914E+01,  3.392400319649676E+01,  3.985232488629740E+01,  5.002425094145278E+01,  9.189225702769552E+04,
2453021.500000000, A.D. 2004-Jan-17 00:00:00.0000,  2.541836741912787E-01,  2.961171526508458E+01,  1.733811335911279E+01,  1.098910225623713E+02,  1.137749415015848E+02,  2.447765166537713E+06,  3.939640168836201E-03,  2.070806244882416E+01,  3.510207594566459E+01,  3.970376383619024E+01,  4.979581240729590E+01,  9.137890380134554E+04,
